{
    "links": {
        "self": "http://www.neowsapp.com/rest/v1/neo/54005701?api_key=iIulBulltgU6a56xZRHN4H3l9WmuAYTsLGpBGhQ2"
    },
    "id": "54005701",
    "neo_reference_id": "54005701",
    "name": "(2020 DY3)",
    "designation": "2020 DY3",
    "nasa_jpl_url": "http://ssd.jpl.nasa.gov/sbdb.cgi?sstr=54005701",
    "absolute_magnitude_h": 24.634,
    "estimated_diameter": {
        "kilometers": {
            "estimated_diameter_min": 0.031459729,
            "estimated_diameter_max": 0.0703460925
        },
        "meters": {
            "estimated_diameter_min": 31.4597289563,
            "estimated_diameter_max": 70.3460925001
        },
        "miles": {
            "estimated_diameter_min": 0.0195481632,
            "estimated_diameter_max": 0.0437110218
        },
        "feet": {
            "estimated_diameter_min": 103.2143371491,
            "estimated_diameter_max": 230.7942741181
        }
    },
    "is_potentially_hazardous_asteroid": false,
    "close_approach_data": [
        {
            "close_approach_date": "2012-02-27",
            "close_approach_date_full": "2012-Feb-27 01:11",
            "epoch_date_close_approach": 1330305060000,
            "relative_velocity": {
                "kilometers_per_second": "14.1135840641",
                "kilometers_per_hour": "50808.9026306344",
                "miles_per_hour": "31570.6761929072"
            },
            "miss_distance": {
                "astronomical": "0.1025583013",
                "lunar": "39.8951792057",
                "kilometers": "15342503.425298231",
                "miles": "9533389.5593323478"
            },
            "orbiting_body": "Earth"
        },
        {
            "close_approach_date": "2020-03-01",
            "close_approach_date_full": "2020-Mar-01 14:23",
            "epoch_date_close_approach": 1583072580000,
            "relative_velocity": {
                "kilometers_per_second": "12.4850576651",
                "kilometers_per_hour": "44946.2075943049",
                "miles_per_hour": "27927.825491028"
            },
            "miss_distance": {
                "astronomical": "0.0697260859",
                "lunar": "27.1234474151",
                "kilometers": "10430873.934077033",
                "miles": "6481444.5140597354"
            },
            "orbiting_body": "Earth"
        },
        {
            "close_approach_date": "2020-07-30",
            "close_approach_date_full": "2020-Jul-30 11:18",
            "epoch_date_close_approach": 1596107880000,
            "relative_velocity": {
                "kilometers_per_second": "10.5647022366",
                "kilometers_per_hour": "38032.928051773",
                "miles_per_hour": "23632.1824330586"
            },
            "miss_distance": {
                "astronomical": "0.3517200809",
                "lunar": "136.8191114701",
                "kilometers": "52616574.938867683",
                "miles": "32694423.6064447054"
            },
            "orbiting_body": "Earth"
        }
    ],
    "orbital_data": {
        "orbit_id": "7",
        "orbit_determination_date": "2020-03-21 06:54:42",
        "first_observation_date": "2020-02-27",
        "last_observation_date": "2020-03-17",
        "data_arc_in_days": 19,
        "observations_used": 59,
        "orbit_uncertainty": "8",
        "minimum_orbit_intersection": ".0673812",
        "jupiter_tisserand_invariant": "4.717",
        "epoch_osculation": "2458908.5",
        "eccentricity": ".3043445410766313",
        "semi_major_axis": "1.369823507097574",
        "inclination": "19.97328339755931",
        "ascending_node_longitude": "334.7729412732139",
        "orbital_period": "585.5922884607032",
        "perihelion_distance": ".9529252004739815",
        "perihelion_argument": "238.1974131419868",
        "aphelion_distance": "1.786721813721167",
        "perihelion_time": "2458956.421363883057",
        "mean_anomaly": "330.5397572033461",
        "mean_motion": ".6147621939255749",
        "equinox": "J2000",
        "orbit_class": {
            "orbit_class_type": "APO",
            "orbit_class_description": "Near-Earth asteroid orbits which cross the Earth’s orbit similar to that of 1862 Apollo",
            "orbit_class_range": "a (semi-major axis) > 1.0 AU; q (perihelion) < 1.017 AU"
        }
    },
    "is_sentry_object": false
}